norad_id,name,regime,epoch,line1,line2,inclination,eccentricity,mean_motion,raan,arg_pericenter,mean_anomaly
36395,SDO,IGO,16066.09606716,1 36395U 10005A   16066.09606716 -.00000086  00000-0  00000+0 0  2915\,2 36395  28.3132 148.9033 0002184 172.6815 134.8131  1.00276171 22370,28.3132,0.0002184,1.00276171,148.9033,172.6815,134.8131
36395,SDO,IGO,16066.40742056,1 36395U 10005A   16066.40742056 -.00000085 +00000-0 +00000-0 0 0001\,2 36395 028.3134 148.8976 0002186 172.6555 247.2431 01.0027615902241,28.3134,0.0002186,1.00276159,148.8976,172.6555,247.2431
36395,SDO,IGO,16067.16012307,1 36395U 10005A   16067.16012307 -.00000085  00000-0  00000+0 0  2921\,2 36395  28.3140 148.8838 0002165 173.1986 158.4389  1.00276129 22386,28.314,0.0002165,1.00276129,148.8838,173.1986,158.4389
36395,SDO,IGO,16067.41636797,1 36395U 10005A   16067.41636797 -.00000084 +00000-0 +00000-0 0 0001\,2 36395 028.3142 148.8791 0002158 173.4296 250.7167 01.0027612102242,28.3142,0.0002158,1.00276121,148.8791,173.4296,250.7167
36395,SDO,IGO,16068.43244834,1 36395U 10005A   16068.43244834 -.00000081 +00000-0 +00000-0 0 0001\,2 36395 028.3149 148.8605 0002150 173.8200 257.1492 01.0027608202243,28.3149,0.000215,1.00276082,148.8605,173.82,257.1492
36395,SDO,IGO,16075.45272219,1 36395U 10005A   16075.45272219 -.00000092  00000-0  00000+0 0  2942\,2 36395  28.3201 148.7324 0002136 177.5389 267.8686  1.00275834 22473,28.3201,0.0002136,1.00275834,148.7324,177.5389,267.8686
36395,SDO,IGO,16075.54723119,1 36395U 10005A   16075.54723119 -.00000093 +00000-0 +00000-0 0 0001\,2 36395 028.3201 148.7307 0002118 178.4616 301.0649 01.0027582402250,28.3201,0.0002118,1.00275824,148.7307,178.4616,301.0649
36395,SDO,IGO,16076.14899877,1 36395U 10005A   16076.14899877 -.00000095 +00000-0 +00000-0 0 0001\,2 36395 028.3206 148.7197 0002123 178.5700 158.2045 01.0027580302250,28.3206,0.0002123,1.00275803,148.7197,178.57,158.2045
36395,SDO,IGO,16078.11268227,1 36395U 10005A   16078.11268227 -.00000097  00000-0  00000+0 0  2958\,2 36395  28.3220 148.6837 0002126 179.1091 146.5866  1.00275727 22495,28.322,0.0002126,1.00275727,148.6837,179.1091,146.5866
36395,SDO,IGO,16078.24732807,1 36395U 10005A   16078.24732807 -.00000097 +00000-0 +00000-0 0 0001\,2 36395 028.3221 148.6812 0002125 179.1414 195.1637 01.0027572202253,28.3221,0.0002125,1.00275722,148.6812,179.1414,195.1637
36395,SDO,IGO,16081.29108639,1 36395U 10005A   16081.29108639 -.00000081  00000-0  00000+0 0  2965\,2 36395  28.3243 148.6249 0002124 179.9632 213.1860  1.00275598 22530,28.3243,0.0002124,1.00275598,148.6249,179.9632,213.186
36395,SDO,IGO,16082.19599164,1 36395U 10005A   16082.19599164 -.00000075 +00000-0 +00000-0 0 0001\,2 36395 028.3250 148.6080 0002114 180.2860 179.5478 01.0027556202256,28.325,0.0002114,1.00275562,148.608,180.286,179.5478
36395,SDO,IGO,16089.28361463,1 36395U 10005A   16089.28361463 -.00000062  00000-0  00000+0 0  2978\,2 36395  28.3307 148.4764 0001970 181.3848 217.1841  1.00275292 22618,28.3307,0.000197,1.00275292,148.4764,181.3848,217.1841
36395,SDO,IGO,16091.37676880,1 36395U 10005A   16091.37676880 -.00000067  00000-0  00000+0 0  2989\,2 36395  28.3324 148.4377 0001919 182.5894 251.6377  1.00275212 22635,28.3324,0.0001919,1.00275212,148.4377,182.5894,251.6377
36395,SDO,IGO,16091.59067010,1 36395U 10005A   16091.59067010 -.00000067 +00000-0 +00000-0 0 0001\,2 36395 028.3325 148.4338 0001914 182.7230 328.7254 01.0027520202266,28.3325,0.0001914,1.00275202,148.4338,182.723,328.7254
36395,SDO,IGO,16093.52247966,1 36395U 10005A   16093.52247966 -.00000068  00000-0  00000+0 0  2999\,2 36395  28.3341 148.3982 0001865 183.9672 304.8915  1.00275126 22659,28.3341,0.0001865,1.00275126,148.3982,183.9672,304.8915
36395,SDO,IGO,16094.54134231,1 36395U 10005A   16094.54134231 -.00000066  00000-0  00000+0 0  3003\,2 36395  28.3349 148.3795 0001842 184.5424 312.1397  1.00275084 22666,28.3349,0.0001842,1.00275084,148.3795,184.5424,312.1397
36395,SDO,IGO,16095.21724961,1 36395U 10005A   16095.21724961 -.00000063 +00000-0 +00000-0 0 0001\,2 36395 028.3354 148.3671 0001839 184.8602 195.8337 01.0027505702270,28.3354,0.0001839,1.00275057,148.3671,184.8602,195.8337
36395,SDO,IGO,16096.40653983,1 36395U 10005A   16096.40653983 -.00000060  00000-0  00000+0 0  3015\,2 36395  28.3364 148.3454 0001822 185.6935 264.3504  1.00275008 22688,28.3364,0.0001822,1.00275008,148.3454,185.6935,264.3504
36395,SDO,IGO,16098.15189811,1 36395U 10005A   16098.15189811  .00000000  00000-0  10000-3 0  3033\,2 36395  28.3377 148.3139 0001701 165.6810 194.4605  1.00272735 22700,28.3377,0.0001701,1.00272735,148.3139,165.681,194.4605
36395,SDO,IGO,16098.54450486,1 36395U 10005A   16098.54450486 -.00000056  00000-0  00000+0 0  3043\,2 36395  28.3382 148.3064 0001806 186.9044 314.9736  1.00274921 22707,28.3382,0.0001806,1.00274921,148.3064,186.9044,314.9736
36395,SDO,IGO,16101.63002262,1 36395U 10005A   16101.63002262 -.00000065  00000-0  00000+0 0  3054\,2 36395  28.3408 148.2503 0001800 188.8365 346.9534  1.00274798 22730,28.3408,0.00018,1.00274798,148.2503,188.8365,346.9534
36395,SDO,IGO,16102.15034227,1 36395U 10005A   16102.15034227 -.00000067 +00000-0 +00000-0 0 0001\,2 36395 028.3413 148.2408 0001805 189.0406 174.5912 01.0027477802277,28.3413,0.0001805,1.00274778,148.2408,189.0406,174.5912
36395,SDO,IGO,16104.16142525,1 36395U 10005A   16104.16142525 -.00000074  00000-0  00000+0 0  3085\,2 36395  28.3430 148.2041 0001795 189.4255 180.2320  1.00274693 22769,28.343,0.0001795,1.00274693,148.2041,189.4255,180.232
36395,SDO,IGO,16105.13215296,1 36395U 10005A   16105.13215296  .00000000  00000-0  10000-3 0  3071\,2 36395  28.3434 148.1859 0001349 148.8624 211.2386  1.00273854 22779,28.3434,0.0001349,1.00273854,148.1859,148.8624,211.2386
36395,SDO,IGO,16106.56386565,1 36395U 10005A   16106.56386565 -.00000070  00000-0  00000+0 0  3092\,2 36395  28.3451 148.1602 0001805 189.2455 327.7216  1.00274593 22789,28.3451,0.0001805,1.00274593,148.1602,189.2455,327.7216
36395,SDO,IGO,16107.35617447,1 36395U 10005A   16107.35617447 -.00000066 +00000-0 +00000-0 0 0001\,2 36395 028.3457 148.1456 0001804 189.2247 253.7752 01.0027455802282,28.3457,0.0001804,1.00274558,148.1456,189.2247,253.7752
36395,SDO,IGO,16109.36911859,1 36395U 10005A   16109.36911859 -.00000052  00000-0  00000+0 0  3105\,2 36395  28.3473 148.1084 0001788 189.5506 260.1448  1.00274468 22819,28.3473,0.0001788,1.00274468,148.1084,189.5506,260.1448
36395,SDO,IGO,16111.14861581,1 36395U 10005A   16111.14861581 -.00000041  00000-0  00000+0 0  3119\,2 36395  28.3489 148.0753 0001754 190.5011 181.6125  1.00274391 22830,28.3489,0.0001754,1.00274391,148.0753,190.5011,181.6125
36395,SDO,IGO,16113.43195591,1 36395U 10005A   16113.43195591 -.00000034  00000-0  00000+0 0  3127\,2 36395  28.3511 148.0331 0001706 190.3523 286.0711  1.00274293 22855,28.3511,0.0001706,1.00274293,148.0331,190.3523,286.0711
36395,SDO,IGO,16114.11890036,1 36395U 10005A   16114.11890036 -.00000034  00000-0  00000+0 0  3130\,2 36395  28.3513 148.0194 0001986 188.1086 176.3053  1.00272959 22861,28.3513,0.0001986,1.00272959,148.0194,188.1086,176.3053
36395,SDO,IGO,16115.25350992,1 36395U 10005A   16115.25350992 -.00000035  00000-0  00000+0 0  3140\,2 36395  28.3523 147.9986 0001803 186.0432 227.9757  1.00273995 22875,28.3523,0.0001803,1.00273995,147.9986,186.0432,227.9757
36395,SDO,IGO,16116.14762991,1 36395U 10005A   16116.14762991 -.00000037 +00000-0 +00000-0 0 0001\,2 36395 028.3531 147.9822 0001772 186.4885 190.3156 01.0027392502291,28.3531,0.0001772,1.00273925,147.9822,186.4885,190.3156
36395,SDO,IGO,16118.47328414,1 36395U 10005A   16118.47328414 -.00000043  00000-0  00000+0 0  3151\,2 36395  28.3552 147.9395 0001691 187.7951 308.5907  1.00273810 22903,28.3552,0.0001691,1.0027381,147.9395,187.7951,308.5907
36395,SDO,IGO,16118.61188008,1 36395U 10005A   16118.61188008 -.00000043 +00000-0 +00000-0 0 0001\,2 36395 028.3553 147.9370 0001729 187.4537 358.9666 01.0027381602293,28.3553,0.0001729,1.00273816,147.937,187.4537,358.9666
36395,SDO,IGO,16119.37505640,1 36395U 10005A   16119.37505640 -.00000044 +00000-0 +00000-0 0 0001\,2 36395 028.3560 147.9230 0001696 187.9021 274.0316 01.0027378802294,28.356,0.0001696,1.00273788,147.923,187.9021,274.0316
36395,SDO,IGO,16120.16190572,1 36395U 10005A   16120.16190572 -.00000044  00000-0  00000+0 0  3164\,2 36395  28.3567 147.9086 0001679 188.1733 197.8198  1.00273753 22924,28.3567,0.0001679,1.00273753,147.9086,188.1733,197.8198
36395,SDO,IGO,16122.47942416,1 36395U 10005A   16122.47942416 -.00000040  00000-0  00000+0 0  3179\,2 36395  28.3588 147.8663 0001636 188.8804 313.7571  1.00273657 22945,28.3588,0.0001636,1.00273657,147.8663,188.8804,313.7571
36395,SDO,IGO,16122.58537267,1 36395U 10005A   16122.58537267 -.00000040 +00000-0 +00000-0 0 0001\,2 36395 028.3589 147.8644 0001608 189.2442 351.6413 01.0027364402297,28.3589,0.0001608,1.00273644,147.8644,189.2442,351.6413
36395,SDO,IGO,16125.47977052,1 36395U 10005A   16125.47977052 -.00000033  00000-0  00000+0 0  3189\,2 36395  28.3616 147.8121 0001576 190.6728 315.1143  1.00273522 22970,28.3616,0.0001576,1.00273522,147.8121,190.6728,315.1143
36395,SDO,IGO,16127.53213580,1 36395U 10005A   16127.53213580 -.00000036  00000-0  00000+0 0  3191\,2 36395  28.3635 147.7751 0001575 191.6238 335.0833  1.00273432 22994,28.3635,0.0001575,1.00273432,147.7751,191.6238,335.0833
36395,SDO,IGO,16128.55538257,1 36395U 10005A   16128.55538257 -.00000041  00000-0  00000+0 0  3203\,2 36395  28.3645 147.7567 0001555 192.3965 343.7102  1.00273384 23007,28.3645,0.0001555,1.00273384,147.7567,192.3965,343.7102
36395,SDO,IGO,16130.06561824,1 36395U 10005A   16130.06561824 -.00000049  00000-0  00000+0 0  3217\,2 36395  28.3659 147.7296 0001549 193.0348 168.2780  1.00273319 23029,28.3659,0.0001549,1.00273319,147.7296,193.0348,168.278
36395,SDO,IGO,16133.59743874,1 36395U 10005A   16133.59743874 -.00000053  00000-0  00000+0 0  3221\,2 36395  28.3691 147.6657 0001599 191.9798   4.3440  1.00273161 23057,28.3691,0.0001599,1.00273161,147.6657,191.9798,4.344
